OBJECT_NAME,OBJECT_ID,EPOCH,MEAN_MOTION,ECCENTRICITY,INCLINATION,RA_OF_ASC_NODE,ARG_OF_PERICENTER,MEAN_ANOMALY,EPHEMERIS_TYPE,CLASSIFICATION_TYPE,NORAD_CAT_ID,ELEMENT_SET_NO,REV_AT_EPOCH,BSTAR,MEAN_MOTION_DOT,MEAN_MOTION_DDOT
BEIDOU-2 IGSO-1 (C06),2010-036A,2026-05-09T13:29:22.963776,1.00281802,.00587117,54.2946,163.3091,224.6236,148.8612,0,U,36828,999,5771,0,-.68E-6,0
BEIDOU-2 G4 (C04),2010-057A,2026-05-11T14:49:38.860032,1.00273004,.0005512,3.5560,69.1458,212.1285,330.5200,0,U,37210,999,5692,0,-.99E-6,0
BEIDOU-2 IGSO-2 (C07),2010-068A,2026-05-10T20:11:03.160320,1.00295908,.00544453,47.6210,272.2953,211.9481,153.0457,0,U,37256,999,5642,0,-.212E-5,0
BEIDOU-2 IGSO-3 (C08),2011-013A,2026-05-10T15:42:07.556832,1.00277511,.00340527,62.3586,40.5091,186.6886,345.0519,0,U,37384,999,5528,0,-.191E-5,0
BEIDOU-2 IGSO-4 (C09),2011-038A,2026-05-11T13:22:03.288864,1.00292322,.01579333,54.6070,165.9997,230.6258,124.7084,0,U,37763,999,5427,0,.61E-6,0
BEIDOU-2 IGSO-5 (C10),2011-073A,2026-05-10T20:39:51.747840,1.00257392,.01116227,47.7495,272.0069,220.7011,138.6998,0,U,37948,999,5276,0,-.161E-5,0
BEIDOU-2 G5 (C05),2012-008A,2026-05-11T13:11:49.269120,1.00271408,.00112187,3.4822,69.9010,272.1057,143.9604,0,U,38091,999,5200,0,.7E-6,0
BEIDOU-2 M3 (C11),2012-018A,2026-05-08T10:53:29.222880,1.86230179,.00196686,55.7928,306.2139,277.1817,82.5892,0,U,38250,999,9520,0,-.38E-6,0
BEIDOU-2 M4 (C12),2012-018B,2026-05-08T22:09:07.925760,1.86229854,.00108839,55.6931,305.4151,282.3733,77.4996,0,U,38251,999,9521,0,-.36E-6,0
BEIDOU-2 M6 (C14),2012-050B,2026-05-11T07:37:25.535424,1.86230914,.00143526,56.5136,64.1132,351.1118,8.8505,0,U,38775,999,9262,0,-.24E-6,0
BEIDOU-2 G6 (C02),2012-059A,2026-05-11T09:53:44.047104,1.00272745,.00107231,4.3282,73.9020,320.2921,67.5141,0,U,38953,999,4954,0,-.163E-5,0
BEIDOU-3S IGSO-1S (C31),2015-019A,2026-05-11T09:56:58.735680,1.00258447,.00376245,49.2668,295.9034,190.3014,346.4531,0,U,40549,999,4070,0,-.166E-5,0
BEIDOU-3S M2S (C58),2015-037A,2026-05-08T14:08:15.043200,1.86232348,.00074551,54.9079,303.4092,268.2126,91.6939,0,U,40748,999,7338,0,-.37E-6,0
BEIDOU-3S M1S (C57),2015-037B,2026-05-11T11:39:27.353664,1.86254926,.000419,54.9010,303.2971,55.3438,304.6890,0,U,40749,999,7344,0,-.37E-6,0
BEIDOU-3S IGSO-2S (C56),2015-053A,2026-05-10T19:52:21.709920,1.00268251,.00639442,49.2829,259.2269,190.8848,173.1930,0,U,40938,999,3898,0,-.159E-5,0
BEIDOU-2 G7 (C03),2016-037A,2026-05-11T15:09:22.799232,1.00271171,.00076992,1.6292,68.9564,357.7755,140.6207,0,U,41586,999,652,0,-.341E-5,0
BEIDOU-3 M1 (C19),2017-069A,2026-05-11T01:59:34.490112,1.86231420,.00117349,56.6611,64.3071,319.7132,40.1880,0,U,43001,999,5791,0,-.22E-6,0
BEIDOU-3 M2 (C20),2017-069B,2026-05-08T08:06:15.032736,1.86210859,.00221209,56.6766,64.4251,73.1957,287.0348,0,U,43002,999,5785,0,-.2E-6,0
BEIDOU-3 M7 (C27),2018-003A,2026-05-09T16:32:43.823040,1.86228381,.00052564,54.3635,303.6569,84.2637,275.7902,0,U,43107,999,5663,0,-.37E-6,0
BEIDOU-3 M8 (C28),2018-003B,2026-05-11T05:53:41.464320,1.86231301,.00021369,54.3551,303.5848,279.4150,80.5545,0,U,43108,999,5667,0,-.39E-6,0
BEIDOU-3 M4 (C22),2018-018A,2026-05-11T03:37:53.705856,1.86231364,.00077515,56.6202,64.3701,5.9408,354.0562,0,U,43207,999,5605,0,-.22E-6,0
BEIDOU-3 M3 (C21),2018-018B,2026-05-11T05:13:35.563008,1.86231284,.00096428,56.6194,64.3718,332.4369,27.4998,0,U,43208,999,5605,0,-.22E-6,0
BEIDOU-3 M9 (C29),2018-029A,2026-05-11T10:27:00.410688,1.86228428,.00008145,54.2290,301.2342,100.4539,259.5462,0,U,43245,999,5521,0,-.38E-6,0
BEIDOU-3 M10 (C30),2018-029B,2026-05-10T19:59:32.458848,1.86229419,.0004634,54.2269,301.2814,36.1850,323.8380,0,U,43246,999,5518,0,-.37E-6,0
BEIDOU-2 IGSO-7 (C16),2018-057A,2026-05-10T12:26:57.202368,1.00262765,.0104003,55.1875,163.3876,237.7354,126.1724,0,U,43539,999,2875,0,-.11E-6,0
BEIDOU-3 M5 (C23),2018-062A,2026-05-11T01:22:23.369952,1.86229011,.00048161,54.0834,183.5668,288.0350,71.9915,0,U,43581,999,5294,0,.64E-6,0
BEIDOU-3 M6 (C24),2018-062B,2026-05-09T07:25:51.702816,1.86227992,.00048082,54.0831,183.6153,18.9796,341.1148,0,U,43582,999,5291,0,.44E-6,0
BEIDOU-3 M12 (C26),2018-067A,2026-05-09T05:57:09.162144,1.86227965,.00078401,54.1783,182.3610,32.7480,327.3771,0,U,43602,999,5239,0,.46E-6,0
BEIDOU-3 M11 (C25),2018-067B,2026-05-10T10:57:55.548288,1.86227411,.00044427,54.1758,182.2838,18.1454,341.9481,0,U,43603,999,5244,0,.59E-6,0
BEIDOU-3 M13 (C32),2018-072A,2026-05-10T22:46:25.648608,1.86231547,.00084078,56.5935,63.8882,321.0851,38.8432,0,U,43622,999,5196,0,-.23E-6,0
